{"type": "FeatureCollection", "features": [ {"type": "Feature", "properties": {"norad_id": 57401, "name": "TIANMU-1 09", "group": "weather", "lat": 39.718972361379656, "lon": 20.727572160427375, "alt_km": 477.5353479866826, "timestamp": "2025-12-03T10:52:57.090495+00:00", "meta": {"OBJECT_NAME": "TIANMU-1 09", "OBJECT_ID": "2023-101C", "EPOCH": "2025-12-03T04:25:12.746784", "MEAN_MOTION": 15.27856746, "ECCENTRICITY": 0.0006742, "INCLINATION": 97.2841, "RA_OF_ASC_NODE": 26.5645, "ARG_OF_PERICENTER": 109.8324, "MEAN_ANOMALY": 250.3643, "EPHEMERIS_TYPE": 0, "CLASSIFICATION_TYPE": "U", "NORAD_CAT_ID": 57401, "ELEMENT_SET_NO": 999, "REV_AT_EPOCH": 13169, "BSTAR": 0.00037115, "MEAN_MOTION_DOT": 0.00010032, "MEAN_MOTION_DDOT": 0}, "tle": {"line1": "1 57401U 23101C   25337.18417531  .00010032  00000+0  37115-3 0  9999", "line2": "2 57401  97.2841  26.5645 0006742 109.8324 250.3643 15.27856746131698"}}, "geometry": {"type": "Point", "coordinates": [20.727572160427375, 39.718972361379656]}}, {"type": "Feature", "properties": {"norad_id": 57402, "name": "TIANMU-1 10", "group": "weather", "lat": -32.403564716050305, "lon": -156.99440459785933, "alt_km": 489.67528361357836, "timestamp": "2025-12-03T10:52:57.090505+00:00", "meta": {"OBJECT_NAME": "TIANMU-1 10", "OBJECT_ID": "2023-101D", "EPOCH": "2025-12-03T03:40:05.729376", "MEAN_MOTION": 15.27846873, "ECCENTRICITY": 0.000848, "INCLINATION": 97.2922, "RA_OF_ASC_NODE": 27.3735, "ARG_OF_PERICENTER": 111.2032, "MEAN_ANOMALY": 249.0114, "EPHEMERIS_TYPE": 0, "CLASSIFICATION_TYPE": "U", "NORAD_CAT_ID": 57402, "ELEMENT_SET_NO": 999, "REV_AT_EPOCH": 13168, "BSTAR": 0.00038387, "MEAN_MOTION_DOT": 0.00010379, "MEAN_MOTION_DDOT": 0}, "tle": {"line1": "1 57402U 23101D   25337.15284409  .00010379  00000+0  38387-3 0  9999", "line2": "2 57402  97.2922  27.3735 0008480 111.2032 249.0114 15.27846873131689"}}, "geometry": {"type": "Point", "coordinates": [-156.99440459785933, -32.403564716050305]}}, {"type": "Feature", "properties": {"norad_id": 57490, "name": "FENGYUN 3F", "group": "weather", "lat": 59.7165036282185, "lon": -118.88557424881647, "alt_km": 819.4906349897856, "timestamp": "2025-12-03T10:52:57.090518+00:00", "meta": {"OBJECT_NAME": "FENGYUN 3F", "OBJECT_ID": "2023-111A", "EPOCH": "2025-12-03T03:33:31.989888", "MEAN_MOTION": 14.19889358, "ECCENTRICITY": 6.95e-05, "INCLINATION": 98.7095, "RA_OF_ASC_NODE": 45.596, "ARG_OF_PERICENTER": 85.7511, "MEAN_ANOMALY": 274.3745, "EPHEMERIS_TYPE": 0, "CLASSIFICATION_TYPE": "U", "NORAD_CAT_ID": 57490, "ELEMENT_SET_NO": 999, "REV_AT_EPOCH": 12104, "BSTAR": 8.5645e-05, "MEAN_MOTION_DOT": 1.38e-06, "MEAN_MOTION_DDOT": 0}, "tle": {"line1": "1 57490U 23111A   25337.14828692  .00000138  00000+0  85645-4 0  9996", "line2": "2 57490  98.7095  45.5960 0000695  85.7511 274.3745 14.19889358121047"}}, "geometry": {"type": "Point", "coordinates": [-118.88557424881647, 59.7165036282185]}}, {"type": "Feature", "properties": {"norad_id": 58584, "name": "ARKTIKA-M 2", "group": "weather", "lat": 51.3911301323931, "lon": -144.85826539954357, "alt_km": 29770.532756629782, "timestamp": "2025-12-03T10:52:57.090530+00:00", "meta": {"OBJECT_NAME": "ARKTIKA-M 2", "OBJECT_ID": "2023-198A", "EPOCH": "2025-12-01T08:43:04.634112", "MEAN_MOTION": 2.00605427, "ECCENTRICITY": 0.68640288, "INCLINATION": 63.2218, "RA_OF_ASC_NODE": 176.1298, "ARG_OF_PERICENTER": 268.1507, "MEAN_ANOMALY": 18.8441, "EPHEMERIS_TYPE": 0, "CLASSIFICATION_TYPE": "U", "NORAD_CAT_ID": 58584, "ELEMENT_SET_NO": 999, "REV_AT_EPOCH": 1435, "BSTAR": 0, "MEAN_MOTION_DOT": 2.37e-06, "MEAN_MOTION_DDOT": 0}, "tle": {"line1": "1 58584U 23198A   25335.36324808  .00000237  00000+0  00000+0 0  9995", "line2": "2 58584  63.2218 176.1298 6864028 268.1507  18.8441  2.00605427 14356"}}, "geometry": {"type": "Point", "coordinates": [-144.85826539954357, 51.3911301323931]}}, {"type": "Feature", "properties": {"norad_id": 58645, "name": "TIANMU-1 11", "group": "weather", "lat": 32.60966649307504, "lon": -178.0141515760682, "alt_km": 496.4093862166401, "timestamp": "2025-12-03T10:52:57.090543+00:00", "meta": {"OBJECT_NAME": "TIANMU-1 11", "OBJECT_ID": "2023-205A", "EPOCH": "2025-12-03T03:56:18.074112", "MEAN_MOTION": 15.24412561, "ECCENTRICITY": 0.0008875, "INCLINATION": 97.3613, "RA_OF_ASC_NODE": 356.9573, "ARG_OF_PERICENTER": 347.8436, "MEAN_ANOMALY": 12.2586, "EPHEMERIS_TYPE": 0, "CLASSIFICATION_TYPE": "U", "NORAD_CAT_ID": 58645, "ELEMENT_SET_NO": 999, "REV_AT_EPOCH": 10763, "BSTAR": 0.00033723, "MEAN_MOTION_DOT": 8.209e-05, "MEAN_MOTION_DDOT": 0}, "tle": {"line1": "1 58645U 23205A   25337.16409808  .00008209  00000+0  33723-3 0  9995", "line2": "2 58645  97.3613 356.9573 0008875 347.8436  12.2586 15.24412561107632"}}, "geometry": {"type": "Point", "coordinates": [-178.0141515760682, 32.60966649307504]}}, {"type": "Feature", "properties": {"norad_id": 58646, "name": "TIANMU-1 12", "group": "weather", "lat": 2.485210548818457, "lon": -3.271426567461478, "alt_km": 491.5949500164843, "timestamp": "2025-12-03T10:52:57.090554+00:00", "meta": {"OBJECT_NAME": "TIANMU-1 12", "OBJECT_ID": "2023-205B", "EPOCH": "2025-12-03T04:34:10.839072", "MEAN_MOTION": 15.24326061, "ECCENTRICITY": 0.0006664, "INCLINATION": 97.36, "RA_OF_ASC_NODE": 356.7917, "ARG_OF_PERICENTER": 333.5855, "MEAN_ANOMALY": 26.5042, "EPHEMERIS_TYPE": 0, "CLASSIFICATION_TYPE": "U", "NORAD_CAT_ID": 58646, "ELEMENT_SET_NO": 999, "REV_AT_EPOCH": 10762, "BSTAR": 0.00035716, "MEAN_MOTION_DOT": 8.672e-05, "MEAN_MOTION_DDOT": 0}, "tle": {"line1": "1 58646U 23205B   25337.19040323  .00008672  00000+0  35716-3 0  9990", "line2": "2 58646  97.3600 356.7917 0006664 333.5855  26.5042 15.24326061107623"}}, "geometry": {"type": "Point", "coordinates": [-3.271426567461478, 2.485210548818457]}}, {"type": "Feature", "properties": {"norad_id": 58647, "name": "TIANMU-1 13", "group": "weather", "lat": 2.1791633704002726, "lon": 177.52910741377576, "alt_km": 498.5177270199747, "timestamp": "2025-12-03T10:52:57.090564+00:00", "meta": {"OBJECT_NAME": "TIANMU-1 13", "OBJECT_ID": "2023-205C", "EPOCH": "2025-12-03T03:48:11.238624", "MEAN_MOTION": 15.24331398, "ECCENTRICITY": 0.0006423, "INCLINATION": 97.3628, "RA_OF_ASC_NODE": 356.9574, "ARG_OF_PERICENTER": 310.3492, "MEAN_ANOMALY": 49.7184, "EPHEMERIS_TYPE": 0, "CLASSIFICATION_TYPE": "U", "NORAD_CAT_ID": 58647, "ELEMENT_SET_NO": 999, "REV_AT_EPOCH": 10761, "BSTAR": 0.00035514, "MEAN_MOTION_DOT": 8.624e-05, "MEAN_MOTION_DDOT": 0}, "tle": {"line1": "1 58647U 23205C   25337.15846341  .00008624  00000+0  35514-3 0  9994", "line2": "2 58647  97.3628 356.9574 0006423 310.3492  49.7184 15.24331398107610"}}, "geometry": {"type": "Point", "coordinates": [177.52910741377576, 2.1791633704002726]}}, {"type": "Feature", "properties": {"norad_id": 58648, "name": "TIANMU-1 14", "group": "weather", "lat": -82.60194366189393, "lon": 92.3659311515969, "alt_km": 496.58495200716334, "timestamp": "2025-12-03T10:52:57.090574+00:00", "meta": {"OBJECT_NAME": "TIANMU-1 14", "OBJECT_ID": "2023-205D", "EPOCH": "2025-12-03T03:24:08.072640", "MEAN_MOTION": 15.24316033, "ECCENTRICITY": 0.0007322, "INCLINATION": 97.356, "RA_OF_ASC_NODE": 356.2985, "ARG_OF_PERICENTER": 314.5275, "MEAN_ANOMALY": 45.5364, "EPHEMERIS_TYPE": 0, "CLASSIFICATION_TYPE": "U", "NORAD_CAT_ID": 58648, "ELEMENT_SET_NO": 999, "REV_AT_EPOCH": 10761, "BSTAR": 0.00036532, "MEAN_MOTION_DOT": 8.87e-05, "MEAN_MOTION_DDOT": 0}, "tle": {"line1": "1 58648U 23205D   25337.14176010  .00008870  00000+0  36532-3 0  9997", "line2": "2 58648  97.3560 356.2985 0007322 314.5275  45.5364 15.24316033107612"}}, "geometry": {"type": "Point", "coordinates": [92.3659311515969, -82.60194366189393]}}, {"type": "Feature", "properties": {"norad_id": 58660, "name": "TIANMU-1 19", "group": "weather", "lat": 53.33042422295422, "lon": 78.40332807706945, "alt_km": 479.4713954317431, "timestamp": "2025-12-03T10:52:57.090585+00:00", "meta": {"OBJECT_NAME": "TIANMU-1 19", "OBJECT_ID": "2023-208A", "EPOCH": "2025-12-03T05:55:50.193408", "MEAN_MOTION": 15.27571648, "ECCENTRICITY": 0.0004097, "INCLINATION": 97.4393, "RA_OF_ASC_NODE": 88.3051, "ARG_OF_PERICENTER": 295.4884, "MEAN_ANOMALY": 64.5931, "EPHEMERIS_TYPE": 0, "CLASSIFICATION_TYPE": "U", "NORAD_CAT_ID": 58660, "ELEMENT_SET_NO": 999, "REV_AT_EPOCH": 10737, "BSTAR": 0.0004846, "MEAN_MOTION_DOT": 0.00013004, "MEAN_MOTION_DDOT": 0}, "tle": {"line1": "1 58660U 23208A   25337.24710872  .00013004  00000+0  48460-3 0  9993", "line2": "2 58660  97.4393  88.3051 0004097 295.4884  64.5931 15.27571648107379"}}, "geometry": {"type": "Point", "coordinates": [78.40332807706945, 53.33042422295422]}}, {"type": "Feature", "properties": {"norad_id": 58661, "name": "TIANMU-1 20", "group": "weather", "lat": 82.41871032076227, "lon": 10.167962236059052, "alt_km": 475.601351348374, "timestamp": "2025-12-03T10:52:57.090595+00:00", "meta": {"OBJECT_NAME": "TIANMU-1 20", "OBJECT_ID": "2023-208B", "EPOCH": "2025-12-03T04:12:47.005056", "MEAN_MOTION": 15.28762421, "ECCENTRICITY": 0.0006469, "INCLINATION": 97.4329, "RA_OF_ASC_NODE": 88.672, "ARG_OF_PERICENTER": 305.8023, "MEAN_ANOMALY": 54.2615, "EPHEMERIS_TYPE": 0, "CLASSIFICATION_TYPE": "U", "NORAD_CAT_ID": 58661, "ELEMENT_SET_NO": 999, "REV_AT_EPOCH": 10743, "BSTAR": 0.00045364, "MEAN_MOTION_DOT": 0.00012623, "MEAN_MOTION_DDOT": 0}, "tle": {"line1": "1 58661U 23208B   25337.17554404  .00012623  00000+0  45364-3 0  9999", "line2": "2 58661  97.4329  88.6720 0006469 305.8023  54.2615 15.28762421107435"}}, "geometry": {"type": "Point", "coordinates": [10.167962236059052, 82.41871032076227]}}]}